ONEWEB-0709             
1 55172U 23004AJ  25012.32627979 -.00000420  00000+0 -12198-2 0  9994
2 55172  87.8910 124.9098 0002469 122.8313 237.3052 13.11414346 97601
ONEWEB-0710             
1 55173U 23004AK  25012.50944595  .00000003  00000+0 -24763-4 0  9990
2 55173  87.9101 109.6247 0001760 100.9066 259.2264 13.17651681 99012
ONEWEB-0711             
1 55174U 23004AL  25012.67895792  .00000544  00000+0  14977-2 0  9996
2 55174  87.8908 124.8079 0002055  82.9944 277.1418 13.11415820 97623
ONEWEB-0713             
1 55175U 23004AM  25012.54499688 -.00000027  00000+0 -11146-3 0  9991
2 55175  87.8911 124.8427 0001752  95.3384 264.7943 13.11413337 97585
ONEWEB-0715             
1 55176U 23004AN  25012.76880501  .00000225  00000+0  59973-3 0  9992
2 55176  87.8909 124.7984 0002063 108.9805 251.1546 13.11413653 97664
ONEWEB-0716             
1 55177U 23004AP  25012.80644394  .00000010  00000+0 -69777-5 0  9994
2 55177  87.9100 109.5618 0001503 107.2135 252.9161 13.17647974 99058
ONEWEB-0717             
1 55178U 23004AQ  25012.33395782 -.00000030  00000+0 -11009-3 0  9993
2 55178  87.9101 109.6170 0002377  90.2562 269.8842 13.17652433 99047
ONEWEB-0719             
1 55179U 23004AR  25012.79969282 -.00000004  00000+0 -43489-4 0  9995
2 55179  87.9099 109.5092 0001479 102.2142 257.9155 13.17648498 99058
ONEWEB-0530             
1 55796U 23029A   25012.56554081  .00000111  00000+0  24036-3 0  9992
2 55796  87.9248  18.0600 0002063  72.0677 288.0681 13.20770823 93139
ONEWEB-0534             
1 55797U 23029B   25012.55292257  .00000078  00000+0  16030-3 0  9993
2 55797  87.9247  18.0699 0001670  89.2083 270.9241 13.20772510 92429
ONEWEB-0556             
1 55798U 23029C   25012.55923461  .00000061  00000+0  11705-3 0  9998
2 55798  87.9247  18.0612 0001438  60.9993 299.1284 13.20772168 92422
ONEWEB-0562             
1 55799U 23029D   25012.54660978  .00000046  00000+0  82310-4 0  9993
2 55799  87.9249  18.0558 0002043  58.8523 301.2810 13.20772499 92429
ONEWEB-0563             
1 55800U 23029E   25012.54029482  .00000081  00000+0  16705-3 0  9998
2 55800  87.9247  18.0718 0001447  94.0045 266.1253 13.20772896 92416
ONEWEB-0564             
1 55801U 23029F   25012.53398236  .00000032  00000+0  46087-4 0  9997
2 55801  87.9249  18.0605 0001937  77.6293 282.5057 13.20772962 93138
ONEWEB-0638             
1 55802U 23029G   25012.51906924  .00000402  00000+0  10512-2 0  9998
2 55802  87.8989  33.2919 0001427  75.8896 284.2392 13.14499458 90990
ONEWEB-0639             
1 55803U 23029H   25012.54961303  .00000005  00000+0 -20183-4 0  9991
2 55803  87.9154  48.4917 0001536 136.9733 223.1520 13.19722816 90236
ONEWEB-0640             
1 55804U 23029J   25012.60469173 -.00000109  00000+0 -32881-3 0  9990
2 55804  87.8988  33.2660 0001002  85.4193 274.7051 13.14500528 91707
ONEWEB-0641             
1 55805U 23029K   25012.54488846  .00000045  00000+0  79139-4 0  9997
2 55805  87.9150  48.4690 0001758 104.7707 255.3621 13.19724267 90244
ONEWEB-0642             
1 55806U 23029L   25012.54014151  .00000047  00000+0  84082-4 0  9997
2 55806  87.9153  48.5009 0001866 127.9938 232.1363 13.19726880 90234
ONEWEB-0643             
1 55807U 23029M   25012.57457075  .00000285  00000+0  73303-3 0  9994
2 55807  87.8986  33.2521 0002192 117.1664 242.9689 13.14501655 90997
ONEWEB-0644             
1 55808U 23029N   25012.53540456  .00000017  00000+0  11073-4 0  9997
2 55808  87.9156  48.5023 0001797 115.2611 244.8708 13.19727470 90235
ONEWEB-0645             
1 55809U 23029P   25012.60727989  .00000015  00000+0  60372-5 0  9999
2 55809  87.9153  48.4863 0001503  98.6338 261.4965 13.19725971 90930
ONEWEB-0646             
1 55810U 23029Q   25012.78892032  .00000098  00000+0  21271-3 0  9996
2 55810  87.9152  48.4461 0001832 105.5493 254.5842 13.19727415 90943
ONEWEB-0648             
1 55811U 23029R   25012.54284210 -.00000186  00000+0 -53657-3 0  9997
2 55811  87.8988  33.2318 0001351 127.9550 232.1701 13.14500647 90993
ONEWEB-0649             
1 55812U 23029S   25012.60016737  .00000096  00000+0  20644-3 0  9990
2 55812  87.9151  48.4756 0001551 111.8744 248.2554 13.19726592 90954
ONEWEB-0650             
1 55813U 23029T   25012.59543360  .00000099  00000+0  21609-3 0  9991
2 55813  87.9151  48.4827 0001788 103.2236 256.9096 13.19726209 90230
ONEWEB-0652             
1 55814U 23029U   25012.59994503 -.00000005  00000+0 -48344-4 0  9996
2 55814  87.8989  33.2316 0001896  88.2418 271.8929 13.14502015 91669
ONEWEB-0653             
1 55815U 23029V   25012.58408900  .00000141  00000+0  34603-3 0  9998
2 55815  87.8992  33.2200 0001710  85.9962 274.1363 13.14501227 91694
ONEWEB-0654             
1 55816U 23029W   25012.57932583  .00000027  00000+0  38026-4 0  9994
2 55816  87.8987  33.2254 0001963  78.8956 281.2395 13.14502000 91023
ONEWEB-0656             
1 55817U 23029X   25012.60342975 -.00000084  00000+0 -23838-3 0  9998
2 55817  87.9249  17.9878 0002310  78.8293 281.3100 13.20772497 93111
ONEWEB-0657             
1 55818U 23029Y   25012.59069295  .00000077  00000+0  16081-3 0  9990
2 55818  87.9154  48.4886 0002701  95.0787 265.0654 13.19726284 90928
ONEWEB-0658             
1 55819U 23029Z   25012.58594932  .00000091  00000+0  19592-3 0  9997
2 55819  87.9153  48.4237 0001824 113.3359 246.7966 13.19727086 90251
ONEWEB-0660             
1 55820U 23029AA  25012.55712786  .00000010  00000+0 -79095-5 0  9993
2 55820  87.8986  33.2024 0001416  97.2126 262.9164 13.14501434 91007
ONEWEB-0661             
1 55821U 23029AB  25012.59203694  .00001005  00000+0  26749-2 0  9990
2 55821  87.8991  33.2646 0001371  94.7441 265.3845 13.14500845 91688
ONEWEB-0662             
1 55822U 23029AC  25012.55077044 -.00000093  00000+0 -28486-3 0  9994
2 55822  87.8989  33.2798 0001435 100.4880 259.6411 13.14500637 91030
ONEWEB-0663             
1 55823U 23029AD  25012.51562788  .00000043  00000+0  72996-4 0  9994
2 55823  87.9248  18.0635 0001438  99.1643 260.9653 13.20820257 92411
ONEWEB-0664             
1 55824U 23029AE  25012.51504232  .00000067  00000+0  13382-3 0  9994
2 55824  87.9250  18.0807 0001593  75.0991 285.0318 13.20772343 92415
ONEWEB-0665             
1 55825U 23029AF  25012.58884530  .00000180  00000+0  45070-3 0  9999
2 55825  87.8989  33.2400 0001538  97.9689 262.1616 13.14502386 91707
ONEWEB-0666             
1 55826U 23029AG  25012.50872753  .00000086  00000+0  17891-3 0  9991
2 55826  87.9250  18.0715 0002096  83.3775 276.7597 13.20772940 93102
ONEWEB-0667             
1 55827U 23029AH  25012.50242341  .00000133  00000+0  29402-3 0  9990
2 55827  87.9249  18.0055 0001567  88.1342 271.9971 13.20770344 92415
ONEWEB-0669             
1 55828U 23029AJ  25012.57343713  .00000133  00000+0  29538-3 0  9993
2 55828  87.9248  18.0278 0002165  69.4415 290.6951 13.20772958 93106
ONEWEB-0670             
1 55829U 23029AK  25012.56664300  .00000141  00000+0  34694-3 0  9999
2 55829  87.8990  33.2570 0001329  84.9485 275.1796 13.14502711 91030
ONEWEB-0671             
1 55830U 23029AL  25012.65703673  .00000090  00000+0  19193-3 0  9998
2 55830  87.9150  48.4707 0001502  92.3768 267.7537 13.19726537 90938
ONEWEB-0672             
1 55831U 23029AM  25012.56871759  .00000116  00000+0  25317-3 0  9994
2 55831  87.9248  18.0135 0002145  85.6154 274.5224 13.20776336 93108
ONEWEB-0673             
1 55832U 23029AN  25012.55752011 -.00000773  00000+0 -19622-2 0  9995
2 55832  87.9150  48.4557 0001797 104.5817 255.5515 13.19731231 90231
ONEWEB-0674             
1 55833U 23029AP  25012.61104307 -.00000263  00000+0 -74270-3 0  9997
2 55833  87.8987  33.2429 0001301  79.8346 280.2931 13.14501808 91701
ONEWEB-0675             
1 55834U 23029AQ  25012.57331455  .00000079  00000+0  16591-3 0  9994
2 55834  87.9154  48.4940 0002168  99.6706 260.4671 13.19727032 90251
ONEWEB-0720             
1 55835U 23029AR  25012.56541959  .00000078  00000+0  16171-3 0  9999
2 55835  87.9153  48.4939 0001550 109.0555 251.0746 13.19726847 90174
ONEWEB-0537             
1 56046U 23043A   25012.38743337  .00000065  00000+0  13635-3 0  9992
2 56046  87.9105 332.5288 0002075  83.2881 276.8487 13.16592983 90433
ONEWEB-0538             
1 56047U 23043B   25012.38108777  .00000026  00000+0  33657-4 0  9990
2 56047  87.9108 332.5515 0001910  90.6184 269.5165 13.16592729 90446
ONEWEB-0546             
1 56048U 23043C   25012.44441995 -.00000081  00000+0 -24610-3 0  9991
2 56048  87.9112 332.5064 0002578  76.7029 283.4389 13.16591833 90443
ONEWEB-0547             
1 56049U 23043D   25012.45816625 -.00000010  00000+0 -54789-4 0  9992
2 56049  87.9312 347.7362 0001853  90.0823 270.0523 13.21827706 89437
ONEWEB-0548             
1 56050U 23043E   25012.39376096  .00000194  00000+0  47320-3 0  9993
2 56050  87.9106 332.5578 0001535  66.0819 294.0472 13.16593121 90432
ONEWEB-0549             
1 56051U 23043F   25012.44948715 -.00000019  00000+0 -76598-4 0  9991
2 56051  87.9314 347.7390 0001790  98.4992 261.6345 13.21828092 89439
ONEWEB-0550             
1 56052U 23043G   25012.66396856 -.00000012  00000+0 -59482-4 0  9995
2 56052  87.9310 347.6966 0001726  81.5424 278.5906 13.21826195 90373
ONEWEB-0551             
1 56053U 23043H   25012.46676353 -.00000021  00000+0 -88614-4 0  9996
2 56053  87.9074   2.9128 0001686  94.3729 265.7594 13.15547377 87931
ONEWEB-0552             
1 56054U 23043J   25012.65765903  .00000006  00000+0 -16156-4 0  9992
2 56054  87.9310 347.7071 0001525  85.5328 274.5981 13.21825889 90375
ONEWEB-0553             
1 56055U 23043K   25012.37477469 -.00000107  00000+0 -31261-3 0  9995
2 56055  87.9107 332.5496 0002151  80.8744 279.2630 13.16594804 90444
ONEWEB-0554             
1 56056U 23043L   25012.43809610 -.00000029  00000+0 -11062-3 0  9990
2 56056  87.9113 332.5637 0001414  64.1075 296.0201 13.16593247 90432
